CCSDS_OMM_VERS = 2.0
CREATION_DATE  = 
ORIGINATOR     = 

OBJECT_NAME    = UNKNOWN
OBJECT_ID      = 
CENTER_NAME    = EARTH
REF_FRAME      = TEME
TIME_SYSTEM    = UTC
MEAN_ELEMENT_THEORY = SGP/SGP4

EPOCH          = 2026-02-05T02:53:51.484992
MEAN_MOTION    = 13.11228588
ECCENTRICITY   = .0895407
INCLINATION    = 65.8323
RA_OF_ASC_NODE = 333.6358
ARG_OF_PERICENTER = 258.4387
MEAN_ANOMALY   = 91.4916

EPHEMERIS_TYPE = 0
CLASSIFICATION_TYPE = U
NORAD_CAT_ID   = 81792
ELEMENT_SET_NO = 999
REV_AT_EPOCH   = 8716
BSTAR          = .82072E-3
MEAN_MOTION_DOT = .2293E-4
MEAN_MOTION_DDOT = 0

CCSDS_OMM_VERS = 2.0
CREATION_DATE  = 
ORIGINATOR     = 

OBJECT_NAME    = UNKNOWN
OBJECT_ID      = 
CENTER_NAME    = EARTH
REF_FRAME      = TEME
TIME_SYSTEM    = UTC
MEAN_ELEMENT_THEORY = SGP/SGP4

EPOCH          = 2026-02-18T05:28:59.273184
MEAN_MOTION    = 12.37934270
ECCENTRICITY   = .0253496
INCLINATION    = 103.8083
RA_OF_ASC_NODE = 334.5616
ARG_OF_PERICENTER = 115.9950
MEAN_ANOMALY   = 246.7447

EPHEMERIS_TYPE = 0
CLASSIFICATION_TYPE = U
NORAD_CAT_ID   = 81812
ELEMENT_SET_NO = 999
REV_AT_EPOCH   = 54891
BSTAR          = .37761E-1
MEAN_MOTION_DOT = .5434E-4
MEAN_MOTION_DDOT = 0

CCSDS_OMM_VERS = 2.0
CREATION_DATE  = 
ORIGINATOR     = 

OBJECT_NAME    = UNKNOWN
OBJECT_ID      = 
CENTER_NAME    = EARTH
REF_FRAME      = TEME
TIME_SYSTEM    = UTC
MEAN_ELEMENT_THEORY = SGP/SGP4

EPOCH          = 2026-02-16T14:16:12.241632
MEAN_MOTION    = 13.89687384
ECCENTRICITY   = .0175451
INCLINATION    = 66.2387
RA_OF_ASC_NODE = 131.9148
ARG_OF_PERICENTER = 210.1656
MEAN_ANOMALY   = 148.9226

EPHEMERIS_TYPE = 0
CLASSIFICATION_TYPE = U
NORAD_CAT_ID   = 81816
ELEMENT_SET_NO = 999
REV_AT_EPOCH   = 61849
BSTAR          = .14327E-2
MEAN_MOTION_DOT = .191E-4
MEAN_MOTION_DDOT = 0

CCSDS_OMM_VERS = 2.0
CREATION_DATE  = 
ORIGINATOR     = 

OBJECT_NAME    = UNKNOWN
OBJECT_ID      = 
CENTER_NAME    = EARTH
REF_FRAME      = TEME
TIME_SYSTEM    = UTC
MEAN_ELEMENT_THEORY = SGP/SGP4

EPOCH          = 2026-02-15T04:53:28.757184
MEAN_MOTION    = 12.47806037
ECCENTRICITY   = .0030373
INCLINATION    = 102.1672
RA_OF_ASC_NODE = 149.2677
ARG_OF_PERICENTER = 352.4780
MEAN_ANOMALY   = 7.5828

EPHEMERIS_TYPE = 0
CLASSIFICATION_TYPE = U
NORAD_CAT_ID   = 81819
ELEMENT_SET_NO = 999
REV_AT_EPOCH   = 55605
BSTAR          = .66582E-2
MEAN_MOTION_DOT = .939E-5
MEAN_MOTION_DDOT = 0

CCSDS_OMM_VERS = 2.0
CREATION_DATE  = 
ORIGINATOR     = 

OBJECT_NAME    = UNKNOWN
OBJECT_ID      = 
CENTER_NAME    = EARTH
REF_FRAME      = TEME
TIME_SYSTEM    = UTC
MEAN_ELEMENT_THEORY = SGP/SGP4

EPOCH          = 2026-02-17T06:48:29.235744
MEAN_MOTION    = 14.36253779
ECCENTRICITY   = .0046826
INCLINATION    = 65.8426
RA_OF_ASC_NODE = 155.4995
ARG_OF_PERICENTER = 299.7533
MEAN_ANOMALY   = 59.8906

EPHEMERIS_TYPE = 0
CLASSIFICATION_TYPE = U
NORAD_CAT_ID   = 81824
ELEMENT_SET_NO = 999
REV_AT_EPOCH   = 63414
BSTAR          = .18172E-2
MEAN_MOTION_DOT = .5294E-4
MEAN_MOTION_DDOT = 0

CCSDS_OMM_VERS = 2.0
CREATION_DATE  = 
ORIGINATOR     = 

OBJECT_NAME    = UNKNOWN
OBJECT_ID      = 
CENTER_NAME    = EARTH
REF_FRAME      = TEME
TIME_SYSTEM    = UTC
MEAN_ELEMENT_THEORY = SGP/SGP4

EPOCH          = 2026-02-16T07:33:10.753056
MEAN_MOTION    = 12.93754278
ECCENTRICITY   = .0024904
INCLINATION    = 90.2455
RA_OF_ASC_NODE = 4.3434
ARG_OF_PERICENTER = 209.7249
MEAN_ANOMALY   = 150.2456

EPHEMERIS_TYPE = 0
CLASSIFICATION_TYPE = U
NORAD_CAT_ID   = 81833
ELEMENT_SET_NO = 999
REV_AT_EPOCH   = 46099
BSTAR          = .95556E-3
MEAN_MOTION_DOT = .271E-5
MEAN_MOTION_DDOT = 0

CCSDS_OMM_VERS = 2.0
CREATION_DATE  = 
ORIGINATOR     = 

OBJECT_NAME    = UNKNOWN
OBJECT_ID      = 
CENTER_NAME    = EARTH
REF_FRAME      = TEME
TIME_SYSTEM    = UTC
MEAN_ELEMENT_THEORY = SGP/SGP4

EPOCH          = 2026-02-18T03:02:06.506880
MEAN_MOTION    = 14.57992297
ECCENTRICITY   = .0044471
INCLINATION    = 67.7591
RA_OF_ASC_NODE = 90.0093
ARG_OF_PERICENTER = 303.2421
MEAN_ANOMALY   = 88.1018

EPHEMERIS_TYPE = 0
CLASSIFICATION_TYPE = U
NORAD_CAT_ID   = 81838
ELEMENT_SET_NO = 999
REV_AT_EPOCH   = 64315
BSTAR          = .11868E-2
MEAN_MOTION_DOT = .545E-4
MEAN_MOTION_DDOT = 0

CCSDS_OMM_VERS = 2.0
CREATION_DATE  = 
ORIGINATOR     = 

OBJECT_NAME    = UNKNOWN
OBJECT_ID      = 
CENTER_NAME    = EARTH
REF_FRAME      = TEME
TIME_SYSTEM    = UTC
MEAN_ELEMENT_THEORY = SGP/SGP4

EPOCH          = 2026-02-17T22:15:20.195712
MEAN_MOTION    = 14.33594974
ECCENTRICITY   = .0060613
INCLINATION    = 82.9084
RA_OF_ASC_NODE = 227.4498
ARG_OF_PERICENTER = 306.5157
MEAN_ANOMALY   = 53.0458

EPHEMERIS_TYPE = 0
CLASSIFICATION_TYPE = U
NORAD_CAT_ID   = 81844
ELEMENT_SET_NO = 999
REV_AT_EPOCH   = 63251
BSTAR          = .19395E-2
MEAN_MOTION_DOT = .5498E-4
MEAN_MOTION_DDOT = 0

CCSDS_OMM_VERS = 2.0
CREATION_DATE  = 
ORIGINATOR     = 

OBJECT_NAME    = UNKNOWN
OBJECT_ID      = 
CENTER_NAME    = EARTH
REF_FRAME      = TEME
TIME_SYSTEM    = UTC
MEAN_ELEMENT_THEORY = SGP/SGP4

EPOCH          = 2026-02-09T11:33:59.876928
MEAN_MOTION    = 14.85561083
ECCENTRICITY   = .0088339
INCLINATION    = 97.6768
RA_OF_ASC_NODE = 230.3923
ARG_OF_PERICENTER = 111.3986
MEAN_ANOMALY   = 279.6775

EPHEMERIS_TYPE = 0
CLASSIFICATION_TYPE = U
NORAD_CAT_ID   = 81845
ELEMENT_SET_NO = 999
REV_AT_EPOCH   = 65824
BSTAR          = .41411E-3
MEAN_MOTION_DOT = .3786E-4
MEAN_MOTION_DDOT = 0

CCSDS_OMM_VERS = 2.0
CREATION_DATE  = 
ORIGINATOR     = 

OBJECT_NAME    = UNKNOWN
OBJECT_ID      = 
CENTER_NAME    = EARTH
REF_FRAME      = TEME
TIME_SYSTEM    = UTC
MEAN_ELEMENT_THEORY = SGP/SGP4

EPOCH          = 2026-02-02T03:08:14.204544
MEAN_MOTION    = 13.32666652
ECCENTRICITY   = .0766542
INCLINATION    = 65.6733
RA_OF_ASC_NODE = 306.7363
ARG_OF_PERICENTER = 350.9348
MEAN_ANOMALY   = 7.8479

EPHEMERIS_TYPE = 0
CLASSIFICATION_TYPE = U
NORAD_CAT_ID   = 81864
ELEMENT_SET_NO = 999
REV_AT_EPOCH   = 55768
BSTAR          = .94023E-3
MEAN_MOTION_DOT = .244E-4
MEAN_MOTION_DDOT = 0

CCSDS_OMM_VERS = 2.0
CREATION_DATE  = 
ORIGINATOR     = 

OBJECT_NAME    = UNKNOWN
OBJECT_ID      = 
CENTER_NAME    = EARTH
REF_FRAME      = TEME
TIME_SYSTEM    = UTC
MEAN_ELEMENT_THEORY = SGP/SGP4

EPOCH          = 2026-02-18T06:18:25.724736
MEAN_MOTION    = 13.88230355
ECCENTRICITY   = .0060704
INCLINATION    = 82.8081
RA_OF_ASC_NODE = 336.5483
ARG_OF_PERICENTER = 171.0126
MEAN_ANOMALY   = 343.0061

EPHEMERIS_TYPE = 0
CLASSIFICATION_TYPE = U
NORAD_CAT_ID   = 81865
ELEMENT_SET_NO = 999
REV_AT_EPOCH   = 61791
BSTAR          = .8955E-3
MEAN_MOTION_DOT = .1101E-4
MEAN_MOTION_DDOT = 0

CCSDS_OMM_VERS = 2.0
CREATION_DATE  = 
ORIGINATOR     = 

OBJECT_NAME    = UNKNOWN
OBJECT_ID      = 
CENTER_NAME    = EARTH
REF_FRAME      = TEME
TIME_SYSTEM    = UTC
MEAN_ELEMENT_THEORY = SGP/SGP4

EPOCH          = 2026-02-16T09:58:26.799744
MEAN_MOTION    = 13.76863765
ECCENTRICITY   = .0021506
INCLINATION    = 100.0540
RA_OF_ASC_NODE = 39.3620
ARG_OF_PERICENTER = 99.4520
MEAN_ANOMALY   = 260.9060

EPHEMERIS_TYPE = 0
CLASSIFICATION_TYPE = U
NORAD_CAT_ID   = 81893
ELEMENT_SET_NO = 999
REV_AT_EPOCH   = 61311
BSTAR          = .11128E-2
MEAN_MOTION_DOT = .1049E-4
MEAN_MOTION_DDOT = 0

