UNKNOWN                 
1 81792U          26036.12073478  .00002293  00000+0  82072-3 0  9993
2 81792  65.8323 333.6358 0895407 258.4387  91.4916 13.11228588 87168
UNKNOWN                 
1 81812U          26049.22846381  .00005434  00000+0  37761-1 0  9995
2 81812 103.8083 334.5616 0253496 115.9950 246.7447 12.37934270548911
UNKNOWN                 
1 81816U          26047.59458613  .00001910  00000+0  14327-2 0  9993
2 81816  66.2387 131.9148 0175451 210.1656 148.9226 13.89687384618496
UNKNOWN                 
1 81819U          26046.20380506  .00000939  00000+0  66582-2 0  9998
2 81819 102.1672 149.2677 0030373 352.4780   7.5828 12.47806037556058
UNKNOWN                 
1 81824U          26048.28367171  .00005294  00000+0  18172-2 0  9998
2 81824  65.8426 155.4995 0046826 299.7533  59.8906 14.36253779634140
UNKNOWN                 
1 81833U          26047.31470779  .00000271  00000+0  95556-3 0  9992
2 81833  90.2455   4.3434 0024904 209.7249 150.2456 12.93754278460999
UNKNOWN                 
1 81838U          26049.12646420  .00005450  00000+0  11868-2 0  9993
2 81838  67.7591  90.0093 0044471 303.2421  88.1018 14.57992297643151
UNKNOWN                 
1 81844U          26048.92731708  .00005498  00000+0  19395-2 0  9996
2 81844  82.9084 227.4498 0060613 306.5157  53.0458 14.33594974632518
UNKNOWN                 
1 81845U          26040.48194302  .00003786  00000+0  41411-3 0  9996
2 81845  97.6768 230.3923 0088339 111.3986 279.6775 14.85561083658242
UNKNOWN                 
1 81864U          26033.13071996  .00002440  00000+0  94023-3 0  9997
2 81864  65.6733 306.7363 0766542 350.9348   7.8479 13.32666652557685
UNKNOWN                 
1 81865U          26049.26279774  .00001101  00000+0  89550-3 0  9995
2 81865  82.8081 336.5483 0060704 171.0126 343.0061 13.88230355617913
UNKNOWN                 
1 81893U          26047.41558796  .00001049  00000+0  11128-2 0  9991
2 81893 100.0540  39.3620 0021506  99.4520 260.9060 13.76863765613114
